,ZIP,City,State
0,87120,Albuquerque, NM
1,87121,Albuquerque, NM
2,87124,Albuquerque, NM
3,87109,Albuquerque, NM
4,87108,Albuquerque, NM
5,87110,Albuquerque, NM
6,87144,Albuquerque, NM
7,87106,Albuquerque, NM
8,87102,Albuquerque, NM
9,18103,Allentown, PA
10,18104,Allentown, PA
11,18042,Allentown, PA
12,7840,Allentown, PA
13,18015,Allentown, PA
14,18062,Allentown, PA
15,30349,Atlanta, GA
16,30044,Atlanta, GA
17,30043,Atlanta, GA
18,30096,Atlanta, GA
19,30024,Atlanta, GA
20,30281,Atlanta, GA
21,30040,Atlanta, GA
22,30318,Atlanta, GA
23,30188,Atlanta, GA
24,30052,Atlanta, GA
25,30041,Atlanta, GA
26,30080,Atlanta, GA
27,30062,Atlanta, GA
28,30331,Atlanta, GA
29,30022,Atlanta, GA
30,30004,Atlanta, GA
31,30127,Atlanta, GA
32,30253,Atlanta, GA
33,30135,Atlanta, GA
34,30066,Atlanta, GA
35,30101,Atlanta, GA
36,30058,Atlanta, GA
37,30083,Atlanta, GA
38,30047,Atlanta, GA
39,30075,Atlanta, GA
40,30067,Atlanta, GA
41,30114,Atlanta, GA
42,30144,Atlanta, GA
43,30319,Atlanta, GA
44,30016,Atlanta, GA
45,30236,Atlanta, GA
46,30309,Atlanta, GA
47,30032,Atlanta, GA
48,30064,Atlanta, GA
49,30328,Atlanta, GA
50,30093,Atlanta, GA
51,30518,Atlanta, GA
52,30324,Atlanta, GA
53,30034,Atlanta, GA
54,30097,Atlanta, GA
55,30339,Atlanta, GA
56,30519,Atlanta, GA
57,30350,Atlanta, GA
58,30228,Atlanta, GA
59,30120,Atlanta, GA
60,30039,Atlanta, GA
61,30680,Atlanta, GA
62,30115,Atlanta, GA
63,30126,Atlanta, GA
64,30134,Atlanta, GA
65,30038,Atlanta, GA
66,30316,Atlanta, GA
67,30252,Atlanta, GA
68,30019,Atlanta, GA
69,30152,Atlanta, GA
70,30213,Atlanta, GA
71,30305,Atlanta, GA
72,30102,Atlanta, GA
73,30338,Atlanta, GA
74,30294,Atlanta, GA
75,30311,Atlanta, GA
76,30269,Atlanta, GA
77,30092,Atlanta, GA
78,30180,Atlanta, GA
79,30033,Atlanta, GA
80,30344,Atlanta, GA
81,30189,Atlanta, GA
82,30087,Atlanta, GA
83,30238,Atlanta, GA
84,30329,Atlanta, GA
85,30014,Atlanta, GA
86,30046,Atlanta, GA
87,30341,Atlanta, GA
88,30117,Atlanta, GA
89,30308,Atlanta, GA
90,30060,Atlanta, GA
91,30030,Atlanta, GA
92,30315,Atlanta, GA
93,30265,Atlanta, GA
94,30005,Atlanta, GA
95,30312,Atlanta, GA
96,30078,Atlanta, GA
97,30274,Atlanta, GA
98,30310,Atlanta, GA
99,30214,Atlanta, GA
100,30045,Atlanta, GA
101,30306,Atlanta, GA
102,30082,Atlanta, GA
103,30013,Atlanta, GA
104,30012,Atlanta, GA
105,30296,Atlanta, GA
106,30088,Atlanta, GA
107,30327,Atlanta, GA
108,30248,Atlanta, GA
109,30307,Atlanta, GA
110,30291,Atlanta, GA
111,30121,Atlanta, GA
112,30009,Atlanta, GA
113,30106,Atlanta, GA
114,30314,Atlanta, GA
115,30326,Atlanta, GA
116,30909,Augusta, GA
117,30907,Augusta, GA
118,30809,Augusta, GA
119,30813,Augusta, GA
120,30904,Augusta, GA
121,78613,Austin, TX
122,78704,Austin, TX
123,78666,Austin, TX
124,78745,Austin, TX
125,78641,Austin, TX
126,78748,Austin, TX
127,78758,Austin, TX
128,78741,Austin, TX
129,78664,Austin, TX
130,78753,Austin, TX
131,78759,Austin, TX
132,78640,Austin, TX
133,78665,Austin, TX
134,78681,Austin, TX
135,78744,Austin, TX
136,78723,Austin, TX
137,78749,Austin, TX
138,78628,Austin, TX
139,78729,Austin, TX
140,78717,Austin, TX
141,78727,Austin, TX
142,78731,Austin, TX
143,78626,Austin, TX
144,78705,Austin, TX
145,78634,Austin, TX
146,78728,Austin, TX
147,78746,Austin, TX
148,78703,Austin, TX
149,78750,Austin, TX
150,78702,Austin, TX
151,78757,Austin, TX
152,78751,Austin, TX
153,78752,Austin, TX
154,78724,Austin, TX
155,78701,Austin, TX
156,78732,Austin, TX
157,78756,Austin, TX
158,78721,Austin, TX
159,93309,Bakersfield, CA
160,21234,Baltimore, MD
161,21117,Baltimore, MD
162,21215,Baltimore, MD
163,21122,Baltimore, MD
164,21222,Baltimore, MD
165,21224,Baltimore, MD
166,21061,Baltimore, MD
167,21218,Baltimore, MD
168,21206,Baltimore, MD
169,21228,Baltimore, MD
170,21229,Baltimore, MD
171,21044,Baltimore, MD
172,21043,Baltimore, MD
173,21220,Baltimore, MD
174,21230,Baltimore, MD
175,21093,Baltimore, MD
176,21045,Baltimore, MD
177,21060,Baltimore, MD
178,21042,Baltimore, MD
179,21113,Baltimore, MD
180,21157,Baltimore, MD
181,21403,Baltimore, MD
182,21217,Baltimore, MD
183,21136,Baltimore, MD
184,21227,Baltimore, MD
185,21239,Baltimore, MD
186,21144,Baltimore, MD
187,21212,Baltimore, MD
188,21237,Baltimore, MD
189,21009,Baltimore, MD
190,21075,Baltimore, MD
191,21225,Baltimore, MD
192,21209,Baltimore, MD
193,21213,Baltimore, MD
194,21202,Baltimore, MD
195,21114,Baltimore, MD
196,21286,Baltimore, MD
197,21223,Baltimore, MD
198,21211,Baltimore, MD
199,21231,Baltimore, MD
200,21076,Baltimore, MD
201,35242,Birmingham, AL
202,35244,Birmingham, AL
203,35205,Birmingham, AL
204,83646,Boise City, ID
205,83642,Boise City, ID
206,83686,Boise City, ID
207,83704,Boise City, ID
208,83706,Boise City, ID
209,83705,Boise City, ID
210,83605,Boise City, ID
211,83616,Boise City, ID
212,83687,Boise City, ID
213,83651,Boise City, ID
214,83702,Boise City, ID
215,83714,Boise City, ID
216,83634,Boise City, ID
217,83703,Boise City, ID
218,2148,Boston, MA
219,2360,Boston, MA
220,2155,Boston, MA
221,2301,Boston, MA
222,2135,Boston, MA
223,2151,Boston, MA
224,2124,Boston, MA
225,1752,Boston, MA
226,2127,Boston, MA
227,2130,Boston, MA
228,2472,Boston, MA
229,2139,Boston, MA
230,2138,Boston, MA
231,1852,Boston, MA
232,3820,Boston, MA
233,1702,Boston, MA
234,2446,Boston, MA
235,3038,Boston, MA
236,2118,Boston, MA
237,1810,Boston, MA
238,2150,Boston, MA
239,2062,Boston, MA
240,2125,Boston, MA
241,2474,Boston, MA
242,2116,Boston, MA
243,2132,Boston, MA
244,1923,Boston, MA
245,2143,Boston, MA
246,2115,Boston, MA
247,2215,Boston, MA
248,2144,Boston, MA
249,2134,Boston, MA
250,2140,Boston, MA
251,2121,Boston, MA
252,2122,Boston, MA
253,2171,Boston, MA
254,2445,Boston, MA
255,2114,Boston, MA
256,2141,Boston, MA
257,2120,Boston, MA
258,2111,Boston, MA
259,2113,Boston, MA
260,2210,Boston, MA
261,2109,Boston, MA
262,80504,Boulder, CO
263,80302,Boulder, CO
264,80305,Boulder, CO
265,14228,Buffalo, NY
266,29464,Charleston, SC
267,29445,Charleston, SC
268,29485,Charleston, SC
269,29483,Charleston, SC
270,29414,Charleston, SC
271,29412,Charleston, SC
272,29407,Charleston, SC
273,29461,Charleston, SC
274,29466,Charleston, SC
275,29486,Charleston, SC
276,29456,Charleston, SC
277,29406,Charleston, SC
278,29405,Charleston, SC
279,29418,Charleston, SC
280,29403,Charleston, SC
281,29420,Charleston, SC
282,29492,Charleston, SC
283,29401,Charleston, SC
284,28269,Charlotte, NC
285,28277,Charlotte, NC
286,28027,Charlotte, NC
287,28078,Charlotte, NC
288,28205,Charlotte, NC
289,28216,Charlotte, NC
290,28215,Charlotte, NC
291,28227,Charlotte, NC
292,28210,Charlotte, NC
293,28025,Charlotte, NC
294,28173,Charlotte, NC
295,28117,Charlotte, NC
296,28262,Charlotte, NC
297,28110,Charlotte, NC
298,28226,Charlotte, NC
299,28213,Charlotte, NC
300,28105,Charlotte, NC
301,28212,Charlotte, NC
302,28115,Charlotte, NC
303,28273,Charlotte, NC
304,28208,Charlotte, NC
305,28214,Charlotte, NC
306,28031,Charlotte, NC
307,28079,Charlotte, NC
308,28052,Charlotte, NC
309,28211,Charlotte, NC
310,28056,Charlotte, NC
311,29707,Charlotte, NC
312,28209,Charlotte, NC
313,28278,Charlotte, NC
314,28104,Charlotte, NC
315,28217,Charlotte, NC
316,28081,Charlotte, NC
317,28203,Charlotte, NC
318,28202,Charlotte, NC
319,28036,Charlotte, NC
320,28207,Charlotte, NC
321,60657,Chicago, IL
322,60614,Chicago, IL
323,60640,Chicago, IL
324,60647,Chicago, IL
325,60618,Chicago, IL
326,60613,Chicago, IL
327,60625,Chicago, IL
328,60610,Chicago, IL
329,60619,Chicago, IL
330,60611,Chicago, IL
331,60617,Chicago, IL
332,60620,Chicago, IL
333,60016,Chicago, IL
334,60628,Chicago, IL
335,60649,Chicago, IL
336,60626,Chicago, IL
337,60622,Chicago, IL
338,60616,Chicago, IL
339,60615,Chicago, IL
340,60641,Chicago, IL
341,60660,Chicago, IL
342,60085,Chicago, IL
343,60637,Chicago, IL
344,60608,Chicago, IL
345,60148,Chicago, IL
346,60004,Chicago, IL
347,60402,Chicago, IL
348,60073,Chicago, IL
349,60411,Chicago, IL
350,60201,Chicago, IL
351,60605,Chicago, IL
352,60014,Chicago, IL
353,60126,Chicago, IL
354,60010,Chicago, IL
355,60089,Chicago, IL
356,60062,Chicago, IL
357,60645,Chicago, IL
358,60654,Chicago, IL
359,60067,Chicago, IL
360,60651,Chicago, IL
361,60193,Chicago, IL
362,60188,Chicago, IL
363,60707,Chicago, IL
364,60120,Chicago, IL
365,60025,Chicago, IL
366,60563,Chicago, IL
367,60540,Chicago, IL
368,60653,Chicago, IL
369,60090,Chicago, IL
370,60031,Chicago, IL
371,60302,Chicago, IL
372,60068,Chicago, IL
373,60074,Chicago, IL
374,60607,Chicago, IL
375,60564,Chicago, IL
376,60030,Chicago, IL
377,60504,Chicago, IL
378,60202,Chicago, IL
379,60586,Chicago, IL
380,60612,Chicago, IL
381,60007,Chicago, IL
382,60565,Chicago, IL
383,60107,Chicago, IL
384,60543,Chicago, IL
385,60659,Chicago, IL
386,60005,Chicago, IL
387,60060,Chicago, IL
388,60174,Chicago, IL
389,60532,Chicago, IL
390,60441,Chicago, IL
391,60169,Chicago, IL
392,60050,Chicago, IL
393,60189,Chicago, IL
394,60624,Chicago, IL
395,60035,Chicago, IL
396,60139,Chicago, IL
397,60621,Chicago, IL
398,60133,Chicago, IL
399,60048,Chicago, IL
400,60061,Chicago, IL
401,60601,Chicago, IL
402,60642,Chicago, IL
403,60544,Chicago, IL
404,60172,Chicago, IL
405,60560,Chicago, IL
406,60008,Chicago, IL
407,60661,Chicago, IL
408,60130,Chicago, IL
409,60026,Chicago, IL
410,60606,Chicago, IL
411,60602,Chicago, IL
412,45011,Cincinnati, OH
413,41042,Cincinnati, OH
414,45231,Cincinnati, OH
415,45219,Cincinnati, OH
416,45209,Cincinnati, OH
417,44107,Cleveland, OH
418,44118,Cleveland, OH
419,44120,Cleveland, OH
420,44121,Cleveland, OH
421,80918,Colorado Springs, CO
422,80909,Colorado Springs, CO
423,80906,Colorado Springs, CO
424,80920,Colorado Springs, CO
425,80916,Colorado Springs, CO
426,80917,Colorado Springs, CO
427,80907,Colorado Springs, CO
428,80911,Colorado Springs, CO
429,80919,Colorado Springs, CO
430,80923,Colorado Springs, CO
431,80817,Colorado Springs, CO
432,80132,Colorado Springs, CO
433,80904,Colorado Springs, CO
434,80922,Colorado Springs, CO
435,80921,Colorado Springs, CO
436,80915,Colorado Springs, CO
437,80905,Colorado Springs, CO
438,80903,Colorado Springs, CO
439,80863,Colorado Springs, CO
440,29072,Columbia, SC
441,29223,Columbia, SC
442,29229,Columbia, SC
443,29073,Columbia, SC
444,29210,Columbia, SC
445,29203,Columbia, SC
446,29209,Columbia, SC
447,29063,Columbia, SC
448,29212,Columbia, SC
449,29205,Columbia, SC
450,29201,Columbia, SC
451,29169,Columbia, SC
452,29045,Columbia, SC
453,29204,Columbia, SC
454,43235,Columbus, OH
455,43204,Columbus, OH
456,43201,Columbus, OH
457,43017,Columbus, OH
458,43206,Columbus, OH
459,43202,Columbus, OH
460,75052,Dallas-Fort Worth, TX
461,75243,Dallas-Fort Worth, TX
462,75067,Dallas-Fort Worth, TX
463,76028,Dallas-Fort Worth, TX
464,75056,Dallas-Fort Worth, TX
465,75035,Dallas-Fort Worth, TX
466,75228,Dallas-Fort Worth, TX
467,76244,Dallas-Fort Worth, TX
468,75206,Dallas-Fort Worth, TX
469,76116,Dallas-Fort Worth, TX
470,75150,Dallas-Fort Worth, TX
471,75070,Dallas-Fort Worth, TX
472,75002,Dallas-Fort Worth, TX
473,76179,Dallas-Fort Worth, TX
474,75211,Dallas-Fort Worth, TX
475,75098,Dallas-Fort Worth, TX
476,75204,Dallas-Fort Worth, TX
477,75068,Dallas-Fort Worth, TX
478,76137,Dallas-Fort Worth, TX
479,75071,Dallas-Fort Worth, TX
480,76051,Dallas-Fort Worth, TX
481,75034,Dallas-Fort Worth, TX
482,75115,Dallas-Fort Worth, TX
483,75093,Dallas-Fort Worth, TX
484,75219,Dallas-Fort Worth, TX
485,75080,Dallas-Fort Worth, TX
486,75040,Dallas-Fort Worth, TX
487,75231,Dallas-Fort Worth, TX
488,75061,Dallas-Fort Worth, TX
489,75126,Dallas-Fort Worth, TX
490,75149,Dallas-Fort Worth, TX
491,75025,Dallas-Fort Worth, TX
492,75024,Dallas-Fort Worth, TX
493,76133,Dallas-Fort Worth, TX
494,75063,Dallas-Fort Worth, TX
495,75074,Dallas-Fort Worth, TX
496,75023,Dallas-Fort Worth, TX
497,75248,Dallas-Fort Worth, TX
498,75062,Dallas-Fort Worth, TX
499,76112,Dallas-Fort Worth, TX
500,76039,Dallas-Fort Worth, TX
501,76017,Dallas-Fort Worth, TX
502,75214,Dallas-Fort Worth, TX
503,76108,Dallas-Fort Worth, TX
504,75104,Dallas-Fort Worth, TX
505,75013,Dallas-Fort Worth, TX
506,75044,Dallas-Fort Worth, TX
507,75019,Dallas-Fort Worth, TX
508,75165,Dallas-Fort Worth, TX
509,76107,Dallas-Fort Worth, TX
510,75028,Dallas-Fort Worth, TX
511,76021,Dallas-Fort Worth, TX
512,76210,Dallas-Fort Worth, TX
513,75081,Dallas-Fort Worth, TX
514,75075,Dallas-Fort Worth, TX
515,76180,Dallas-Fort Worth, TX
516,76227,Dallas-Fort Worth, TX
517,75069,Dallas-Fort Worth, TX
518,75220,Dallas-Fort Worth, TX
519,75087,Dallas-Fort Worth, TX
520,76065,Dallas-Fort Worth, TX
521,76248,Dallas-Fort Worth, TX
522,75230,Dallas-Fort Worth, TX
523,76013,Dallas-Fort Worth, TX
524,75252,Dallas-Fort Worth, TX
525,75033,Dallas-Fort Worth, TX
526,75039,Dallas-Fort Worth, TX
527,75010,Dallas-Fort Worth, TX
528,76053,Dallas-Fort Worth, TX
529,75234,Dallas-Fort Worth, TX
530,75189,Dallas-Fort Worth, TX
531,75042,Dallas-Fort Worth, TX
532,76182,Dallas-Fort Worth, TX
533,75229,Dallas-Fort Worth, TX
534,75032,Dallas-Fort Worth, TX
535,76014,Dallas-Fort Worth, TX
536,76109,Dallas-Fort Worth, TX
537,76123,Dallas-Fort Worth, TX
538,76012,Dallas-Fort Worth, TX
539,75201,Dallas-Fort Worth, TX
540,75218,Dallas-Fort Worth, TX
541,75089,Dallas-Fort Worth, TX
542,76001,Dallas-Fort Worth, TX
543,75240,Dallas-Fort Worth, TX
544,75241,Dallas-Fort Worth, TX
545,75082,Dallas-Fort Worth, TX
546,76036,Dallas-Fort Worth, TX
547,75205,Dallas-Fort Worth, TX
548,76140,Dallas-Fort Worth, TX
549,75041,Dallas-Fort Worth, TX
550,76134,Dallas-Fort Worth, TX
551,76018,Dallas-Fort Worth, TX
552,75022,Dallas-Fort Worth, TX
553,75146,Dallas-Fort Worth, TX
554,76135,Dallas-Fort Worth, TX
555,76120,Dallas-Fort Worth, TX
556,76052,Dallas-Fort Worth, TX
557,75209,Dallas-Fort Worth, TX
558,76015,Dallas-Fort Worth, TX
559,75137,Dallas-Fort Worth, TX
560,75409,Dallas-Fort Worth, TX
561,76207,Dallas-Fort Worth, TX
562,76118,Dallas-Fort Worth, TX
563,76247,Dallas-Fort Worth, TX
564,45324,Dayton, OH
565,45342,Dayton, OH
566,32137,Daytona Beach, FL
567,32725,Daytona Beach, FL
568,32738,Daytona Beach, FL
569,32720,Daytona Beach, FL
570,32119,Daytona Beach, FL
571,32129,Daytona Beach, FL
572,32176,Daytona Beach, FL
573,80134,Denver, CO
574,80013,Denver, CO
575,80015,Denver, CO
576,80016,Denver, CO
577,80219,Denver, CO
578,80020,Denver, CO
579,80123,Denver, CO
580,80012,Denver, CO
581,80014,Denver, CO
582,80229,Denver, CO
583,80011,Denver, CO
584,80210,Denver, CO
585,80220,Denver, CO
586,80127,Denver, CO
587,80231,Denver, CO
588,80022,Denver, CO
589,80205,Denver, CO
590,80203,Denver, CO
591,80228,Denver, CO
592,80204,Denver, CO
593,80247,Denver, CO
594,80112,Denver, CO
595,80004,Denver, CO
596,80209,Denver, CO
597,80206,Denver, CO
598,80226,Denver, CO
599,80010,Denver, CO
600,80601,Denver, CO
601,80017,Denver, CO
602,80202,Denver, CO
603,80111,Denver, CO
604,80214,Denver, CO
605,80218,Denver, CO
606,80033,Denver, CO
607,80241,Denver, CO
608,80222,Denver, CO
609,80238,Denver, CO
610,80215,Denver, CO
611,48185,Detroit, MI
612,48066,Detroit, MI
613,48187,Detroit, MI
614,48228,Detroit, MI
615,48307,Detroit, MI
616,48219,Detroit, MI
617,48843,Detroit, MI
618,48073,Detroit, MI
619,48188,Detroit, MI
620,48227,Detroit, MI
621,48224,Detroit, MI
622,48186,Detroit, MI
623,48021,Detroit, MI
624,48071,Detroit, MI
625,48067,Detroit, MI
626,48322,Detroit, MI
627,48317,Detroit, MI
628,48089,Detroit, MI
629,48220,Detroit, MI
630,48135,Detroit, MI
631,48390,Detroit, MI
632,48326,Detroit, MI
633,48009,Detroit, MI
634,48083,Detroit, MI
635,48168,Detroit, MI
636,48125,Detroit, MI
637,48098,Detroit, MI
638,48084,Detroit, MI
639,48225,Detroit, MI
640,48017,Detroit, MI
641,27703,Durham, NC
642,27713,Durham, NC
643,27707,Durham, NC
644,27705,Durham, NC
645,27516,Durham, NC
646,27704,Durham, NC
647,27517,Durham, NC
648,27514,Durham, NC
649,27701,Durham, NC
650,27510,Durham, NC
651,79936,El Paso, TX
652,79912,El Paso, TX
653,80525,Fort Collins, CO
654,33908,Fort Myers, FL
655,33904,Fort Myers, FL
656,33928,Fort Myers, FL
657,33913,Fort Myers, FL
658,33909,Fort Myers, FL
659,33901,Fort Myers, FL
660,33991,Fort Myers, FL
661,33916,Fort Myers, FL
662,33966,Fort Myers, FL
663,30506,Gainesville, GA
664,30542,Gainesville, GA
665,49504,Grand Rapids, MI
666,49508,Grand Rapids, MI
667,49505,Grand Rapids, MI
668,49506,Grand Rapids, MI
669,27406,Greensboro, NC
670,27455,Greensboro, NC
671,29681,Greenville, SC
672,29607,Greenville, SC
673,29615,Greenville, SC
674,29650,Greenville, SC
675,29605,Greenville, SC
676,29609,Greenville, SC
677,6457,Hartford, CT
678,6040,Hartford, CT
679,6111,Hartford, CT
680,77494,Houston, TX
681,77449,Houston, TX
682,77084,Houston, TX
683,77573,Houston, TX
684,77584,Houston, TX
685,77433,Houston, TX
686,77429,Houston, TX
687,77479,Houston, TX
688,77077,Houston, TX
689,77379,Houston, TX
690,77459,Houston, TX
691,77450,Houston, TX
692,77095,Houston, TX
693,77007,Houston, TX
694,77057,Houston, TX
695,77346,Houston, TX
696,77375,Houston, TX
697,77083,Houston, TX
698,77373,Houston, TX
699,77386,Houston, TX
700,77063,Houston, TX
701,77008,Houston, TX
702,77339,Houston, TX
703,77088,Houston, TX
704,77090,Houston, TX
705,77539,Houston, TX
706,77006,Houston, TX
707,77009,Houston, TX
708,77065,Houston, TX
709,77079,Houston, TX
710,77381,Houston, TX
711,77073,Houston, TX
712,77380,Houston, TX
713,77382,Houston, TX
714,77019,Houston, TX
715,77550,Houston, TX
716,77301,Houston, TX
717,77066,Houston, TX
718,77098,Houston, TX
719,77385,Houston, TX
720,46032,Indianapolis, IN
721,46226,Indianapolis, IN
722,46220,Indianapolis, IN
723,46038,Indianapolis, IN
724,46037,Indianapolis, IN
725,46219,Indianapolis, IN
726,46224,Indianapolis, IN
727,46203,Indianapolis, IN
728,46123,Indianapolis, IN
729,46222,Indianapolis, IN
730,46201,Indianapolis, IN
731,46217,Indianapolis, IN
732,46235,Indianapolis, IN
733,46218,Indianapolis, IN
734,46205,Indianapolis, IN
735,46202,Indianapolis, IN
736,46208,Indianapolis, IN
737,32210,Jacksonville, FL
738,32218,Jacksonville, FL
739,32256,Jacksonville, FL
740,32244,Jacksonville, FL
741,32225,Jacksonville, FL
742,32246,Jacksonville, FL
743,32068,Jacksonville, FL
744,32216,Jacksonville, FL
745,32259,Jacksonville, FL
746,32224,Jacksonville, FL
747,32034,Jacksonville, FL
748,32257,Jacksonville, FL
749,32073,Jacksonville, FL
750,32207,Jacksonville, FL
751,32209,Jacksonville, FL
752,32084,Jacksonville, FL
753,32258,Jacksonville, FL
754,32092,Jacksonville, FL
755,32250,Jacksonville, FL
756,32082,Jacksonville, FL
757,32205,Jacksonville, FL
758,32065,Jacksonville, FL
759,32211,Jacksonville, FL
760,32208,Jacksonville, FL
761,32233,Jacksonville, FL
762,32221,Jacksonville, FL
763,32003,Jacksonville, FL
764,32223,Jacksonville, FL
765,32043,Jacksonville, FL
766,32097,Jacksonville, FL
767,32206,Jacksonville, FL
768,32226,Jacksonville, FL
769,32254,Jacksonville, FL
770,32222,Jacksonville, FL
771,32219,Jacksonville, FL
772,66061,Kansas City, MO
773,64055,Kansas City, MO
774,64114,Kansas City, MO
775,64111,Kansas City, MO
776,64030,Kansas City, MO
777,64130,Kansas City, MO
778,64134,Kansas City, MO
779,64064,Kansas City, MO
780,64110,Kansas City, MO
781,64117,Kansas City, MO
782,64132,Kansas City, MO
783,64112,Kansas City, MO
784,64105,Kansas City, MO
785,33810,Lakeland, FL
786,33844,Lakeland, FL
787,33880,Lakeland, FL
788,33884,Lakeland, FL
789,33813,Lakeland, FL
790,33801,Lakeland, FL
791,33803,Lakeland, FL
792,34758,Lakeland, FL
793,33809,Lakeland, FL
794,33897,Lakeland, FL
795,89121,Las Vegas, NV
796,89052,Las Vegas, NV
797,89117,Las Vegas, NV
798,89031,Las Vegas, NV
799,89123,Las Vegas, NV
800,89148,Las Vegas, NV
801,89110,Las Vegas, NV
802,89074,Las Vegas, NV
803,89103,Las Vegas, NV
804,89147,Las Vegas, NV
805,89119,Las Vegas, NV
806,89129,Las Vegas, NV
807,89122,Las Vegas, NV
808,89115,Las Vegas, NV
809,89131,Las Vegas, NV
810,89014,Las Vegas, NV
811,89128,Las Vegas, NV
812,89015,Las Vegas, NV
813,89012,Las Vegas, NV
814,89149,Las Vegas, NV
815,89032,Las Vegas, NV
816,89102,Las Vegas, NV
817,89139,Las Vegas, NV
818,89178,Las Vegas, NV
819,89183,Las Vegas, NV
820,89113,Las Vegas, NV
821,89135,Las Vegas, NV
822,89002,Las Vegas, NV
823,89107,Las Vegas, NV
824,89011,Las Vegas, NV
825,89081,Las Vegas, NV
826,89130,Las Vegas, NV
827,89141,Las Vegas, NV
828,89134,Las Vegas, NV
829,89142,Las Vegas, NV
830,89044,Las Vegas, NV
831,89084,Las Vegas, NV
832,89145,Las Vegas, NV
833,89120,Las Vegas, NV
834,89166,Las Vegas, NV
835,89118,Las Vegas, NV
836,89144,Las Vegas, NV
837,89146,Las Vegas, NV
838,89138,Las Vegas, NV
839,89109,Las Vegas, NV
840,89143,Las Vegas, NV
841,90250,Los Angeles-Long Beach-Anaheim, CA
842,90046,Los Angeles-Long Beach-Anaheim, CA
843,90034,Los Angeles-Long Beach-Anaheim, CA
844,90805,Los Angeles-Long Beach-Anaheim, CA
845,90650,Los Angeles-Long Beach-Anaheim, CA
846,92683,Los Angeles-Long Beach-Anaheim, CA
847,90026,Los Angeles-Long Beach-Anaheim, CA
848,92677,Los Angeles-Long Beach-Anaheim, CA
849,90066,Los Angeles-Long Beach-Anaheim, CA
850,92804,Los Angeles-Long Beach-Anaheim, CA
851,90019,Los Angeles-Long Beach-Anaheim, CA
852,90004,Los Angeles-Long Beach-Anaheim, CA
853,91342,Los Angeles-Long Beach-Anaheim, CA
854,90706,Los Angeles-Long Beach-Anaheim, CA
855,92627,Los Angeles-Long Beach-Anaheim, CA
856,90025,Los Angeles-Long Beach-Anaheim, CA
857,90027,Los Angeles-Long Beach-Anaheim, CA
858,91335,Los Angeles-Long Beach-Anaheim, CA
859,90731,Los Angeles-Long Beach-Anaheim, CA
860,93550,Los Angeles-Long Beach-Anaheim, CA
861,93536,Los Angeles-Long Beach-Anaheim, CA
862,92630,Los Angeles-Long Beach-Anaheim, CA
863,90802,Los Angeles-Long Beach-Anaheim, CA
864,90631,Los Angeles-Long Beach-Anaheim, CA
865,92647,Los Angeles-Long Beach-Anaheim, CA
866,92618,Los Angeles-Long Beach-Anaheim, CA
867,92646,Los Angeles-Long Beach-Anaheim, CA
868,92620,Los Angeles-Long Beach-Anaheim, CA
869,92648,Los Angeles-Long Beach-Anaheim, CA
870,90036,Los Angeles-Long Beach-Anaheim, CA
871,91801,Los Angeles-Long Beach-Anaheim, CA
872,92805,Los Angeles-Long Beach-Anaheim, CA
873,92656,Los Angeles-Long Beach-Anaheim, CA
874,92626,Los Angeles-Long Beach-Anaheim, CA
875,90028,Los Angeles-Long Beach-Anaheim, CA
876,90024,Los Angeles-Long Beach-Anaheim, CA
877,92708,Los Angeles-Long Beach-Anaheim, CA
878,91402,Los Angeles-Long Beach-Anaheim, CA
879,91367,Los Angeles-Long Beach-Anaheim, CA
880,91406,Los Angeles-Long Beach-Anaheim, CA
881,90049,Los Angeles-Long Beach-Anaheim, CA
882,90020,Los Angeles-Long Beach-Anaheim, CA
883,90277,Los Angeles-Long Beach-Anaheim, CA
884,92780,Los Angeles-Long Beach-Anaheim, CA
885,90813,Los Angeles-Long Beach-Anaheim, CA
886,90803,Los Angeles-Long Beach-Anaheim, CA
887,90503,Los Angeles-Long Beach-Anaheim, CA
888,91601,Los Angeles-Long Beach-Anaheim, CA
889,91702,Los Angeles-Long Beach-Anaheim, CA
890,92692,Los Angeles-Long Beach-Anaheim, CA
891,91343,Los Angeles-Long Beach-Anaheim, CA
892,90630,Los Angeles-Long Beach-Anaheim, CA
893,90016,Los Angeles-Long Beach-Anaheim, CA
894,91304,Los Angeles-Long Beach-Anaheim, CA
895,92870,Los Angeles-Long Beach-Anaheim, CA
896,90045,Los Angeles-Long Beach-Anaheim, CA
897,91344,Los Angeles-Long Beach-Anaheim, CA
898,90278,Los Angeles-Long Beach-Anaheim, CA
899,92691,Los Angeles-Long Beach-Anaheim, CA
900,92886,Los Angeles-Long Beach-Anaheim, CA
901,92672,Los Angeles-Long Beach-Anaheim, CA
902,91745,Los Angeles-Long Beach-Anaheim, CA
903,92688,Los Angeles-Long Beach-Anaheim, CA
904,92833,Los Angeles-Long Beach-Anaheim, CA
905,91765,Los Angeles-Long Beach-Anaheim, CA
906,92660,Los Angeles-Long Beach-Anaheim, CA
907,90275,Los Angeles-Long Beach-Anaheim, CA
908,90804,Los Angeles-Long Beach-Anaheim, CA
909,91016,Los Angeles-Long Beach-Anaheim, CA
910,90815,Los Angeles-Long Beach-Anaheim, CA
911,93534,Los Angeles-Long Beach-Anaheim, CA
912,90029,Los Angeles-Long Beach-Anaheim, CA
913,91606,Los Angeles-Long Beach-Anaheim, CA
914,90291,Los Angeles-Long Beach-Anaheim, CA
915,91423,Los Angeles-Long Beach-Anaheim, CA
916,90501,Los Angeles-Long Beach-Anaheim, CA
917,90292,Los Angeles-Long Beach-Anaheim, CA
918,90069,Los Angeles-Long Beach-Anaheim, CA
919,90405,Los Angeles-Long Beach-Anaheim, CA
920,90740,Los Angeles-Long Beach-Anaheim, CA
921,91401,Los Angeles-Long Beach-Anaheim, CA
922,90266,Los Angeles-Long Beach-Anaheim, CA
923,91767,Los Angeles-Long Beach-Anaheim, CA
924,92705,Los Angeles-Long Beach-Anaheim, CA
925,91604,Los Angeles-Long Beach-Anaheim, CA
926,92649,Los Angeles-Long Beach-Anaheim, CA
927,90505,Los Angeles-Long Beach-Anaheim, CA
928,90808,Los Angeles-Long Beach-Anaheim, CA
929,90403,Los Angeles-Long Beach-Anaheim, CA
930,91387,Los Angeles-Long Beach-Anaheim, CA
931,92612,Los Angeles-Long Beach-Anaheim, CA
932,91748,Los Angeles-Long Beach-Anaheim, CA
933,91306,Los Angeles-Long Beach-Anaheim, CA
934,90035,Los Angeles-Long Beach-Anaheim, CA
935,91607,Los Angeles-Long Beach-Anaheim, CA
936,91311,Los Angeles-Long Beach-Anaheim, CA
937,90007,Los Angeles-Long Beach-Anaheim, CA
938,90048,Los Angeles-Long Beach-Anaheim, CA
939,92707,Los Angeles-Long Beach-Anaheim, CA
940,92867,Los Angeles-Long Beach-Anaheim, CA
941,90068,Los Angeles-Long Beach-Anaheim, CA
942,91107,Los Angeles-Long Beach-Anaheim, CA
943,91206,Los Angeles-Long Beach-Anaheim, CA
944,90807,Los Angeles-Long Beach-Anaheim, CA
945,90806,Los Angeles-Long Beach-Anaheim, CA
946,92629,Los Angeles-Long Beach-Anaheim, CA
947,91789,Los Angeles-Long Beach-Anaheim, CA
948,91104,Los Angeles-Long Beach-Anaheim, CA
949,90230,Los Angeles-Long Beach-Anaheim, CA
950,91326,Los Angeles-Long Beach-Anaheim, CA
951,92807,Los Angeles-Long Beach-Anaheim, CA
952,91773,Los Angeles-Long Beach-Anaheim, CA
953,91355,Los Angeles-Long Beach-Anaheim, CA
954,91316,Los Angeles-Long Beach-Anaheim, CA
955,92651,Los Angeles-Long Beach-Anaheim, CA
956,92637,Los Angeles-Long Beach-Anaheim, CA
957,92701,Los Angeles-Long Beach-Anaheim, CA
958,90039,Los Angeles-Long Beach-Anaheim, CA
959,91325,Los Angeles-Long Beach-Anaheim, CA
960,91403,Los Angeles-Long Beach-Anaheim, CA
961,91356,Los Angeles-Long Beach-Anaheim, CA
962,92675,Los Angeles-Long Beach-Anaheim, CA
963,91007,Los Angeles-Long Beach-Anaheim, CA
964,92694,Los Angeles-Long Beach-Anaheim, CA
965,91106,Los Angeles-Long Beach-Anaheim, CA
966,91722,Los Angeles-Long Beach-Anaheim, CA
967,91321,Los Angeles-Long Beach-Anaheim, CA
968,92602,Los Angeles-Long Beach-Anaheim, CA
969,92663,Los Angeles-Long Beach-Anaheim, CA
970,90601,Los Angeles-Long Beach-Anaheim, CA
971,92614,Los Angeles-Long Beach-Anaheim, CA
972,90015,Los Angeles-Long Beach-Anaheim, CA
973,90260,Los Angeles-Long Beach-Anaheim, CA
974,91354,Los Angeles-Long Beach-Anaheim, CA
975,91101,Los Angeles-Long Beach-Anaheim, CA
976,92782,Los Angeles-Long Beach-Anaheim, CA
977,91006,Los Angeles-Long Beach-Anaheim, CA
978,90712,Los Angeles-Long Beach-Anaheim, CA
979,92653,Los Angeles-Long Beach-Anaheim, CA
980,90404,Los Angeles-Long Beach-Anaheim, CA
981,92673,Los Angeles-Long Beach-Anaheim, CA
982,92679,Los Angeles-Long Beach-Anaheim, CA
983,91364,Los Angeles-Long Beach-Anaheim, CA
984,91351,Los Angeles-Long Beach-Anaheim, CA
985,90254,Los Angeles-Long Beach-Anaheim, CA
986,91602,Los Angeles-Long Beach-Anaheim, CA
987,92604,Los Angeles-Long Beach-Anaheim, CA
988,91303,Los Angeles-Long Beach-Anaheim, CA
989,91324,Los Angeles-Long Beach-Anaheim, CA
990,90272,Los Angeles-Long Beach-Anaheim, CA
991,91302,Los Angeles-Long Beach-Anaheim, CA
992,90814,Los Angeles-Long Beach-Anaheim, CA
993,90210,Los Angeles-Long Beach-Anaheim, CA
994,91301,Los Angeles-Long Beach-Anaheim, CA
995,90720,Los Angeles-Long Beach-Anaheim, CA
996,91202,Los Angeles-Long Beach-Anaheim, CA
997,92832,Los Angeles-Long Beach-Anaheim, CA
998,90732,Los Angeles-Long Beach-Anaheim, CA
999,92868,Los Angeles-Long Beach-Anaheim, CA
1000,92606,Los Angeles-Long Beach-Anaheim, CA
1001,91201,Los Angeles-Long Beach-Anaheim, CA
1002,91775,Los Angeles-Long Beach-Anaheim, CA
1003,90265,Los Angeles-Long Beach-Anaheim, CA
1004,90245,Los Angeles-Long Beach-Anaheim, CA
1005,92603,Los Angeles-Long Beach-Anaheim, CA
1006,92808,Los Angeles-Long Beach-Anaheim, CA
1007,92887,Los Angeles-Long Beach-Anaheim, CA
1008,92625,Los Angeles-Long Beach-Anaheim, CA
1009,90293,Los Angeles-Long Beach-Anaheim, CA
1010,90013,Los Angeles-Long Beach-Anaheim, CA
1011,90212,Los Angeles-Long Beach-Anaheim, CA
1012,90402,Los Angeles-Long Beach-Anaheim, CA
1013,92657,Los Angeles-Long Beach-Anaheim, CA
1014,92610,Los Angeles-Long Beach-Anaheim, CA
1015,90211,Los Angeles-Long Beach-Anaheim, CA
1016,40211,Louisville-Jefferson County, KY
1017,40204,Louisville-Jefferson County, KY
1018,53711,Madison, WI
1019,53719,Madison, WI
1020,32940,Melbourne, FL
1021,32780,Melbourne, FL
1022,32907,Melbourne, FL
1023,32955,Melbourne, FL
1024,32904,Melbourne, FL
1025,32909,Melbourne, FL
1026,32937,Melbourne, FL
1027,32905,Melbourne, FL
1028,32931,Melbourne, FL
1029,32920,Melbourne, FL
1030,32922,Melbourne, FL
1031,38016,Memphis, TN
1032,38017,Memphis, TN
1033,38111,Memphis, TN
1034,38115,Memphis, TN
1035,38128,Memphis, TN
1036,38671,Memphis, TN
1037,38127,Memphis, TN
1038,38002,Memphis, TN
1039,38018,Memphis, TN
1040,38104,Memphis, TN
1041,38117,Memphis, TN
1042,38103,Memphis, TN
1043,38141,Memphis, TN
1044,38112,Memphis, TN
1045,33160,Miami-Fort Lauderdale, FL
1046,33411,Miami-Fort Lauderdale, FL
1047,33025,Miami-Fort Lauderdale, FL
1048,33139,Miami-Fort Lauderdale, FL
1049,33024,Miami-Fort Lauderdale, FL
1050,33009,Miami-Fort Lauderdale, FL
1051,33186,Miami-Fort Lauderdale, FL
1052,33063,Miami-Fort Lauderdale, FL
1053,33064,Miami-Fort Lauderdale, FL
1054,33027,Miami-Fort Lauderdale, FL
1055,33311,Miami-Fort Lauderdale, FL
1056,33313,Miami-Fort Lauderdale, FL
1057,33467,Miami-Fort Lauderdale, FL
1058,33321,Miami-Fort Lauderdale, FL
1059,33157,Miami-Fort Lauderdale, FL
1060,33414,Miami-Fort Lauderdale, FL
1061,33433,Miami-Fort Lauderdale, FL
1062,33015,Miami-Fort Lauderdale, FL
1063,33463,Miami-Fort Lauderdale, FL
1064,33436,Miami-Fort Lauderdale, FL
1065,33141,Miami-Fort Lauderdale, FL
1066,33324,Miami-Fort Lauderdale, FL
1067,33178,Miami-Fort Lauderdale, FL
1068,33021,Miami-Fort Lauderdale, FL
1069,33023,Miami-Fort Lauderdale, FL
1070,33308,Miami-Fort Lauderdale, FL
1071,33418,Miami-Fort Lauderdale, FL
1072,33312,Miami-Fort Lauderdale, FL
1073,33065,Miami-Fort Lauderdale, FL
1074,33033,Miami-Fort Lauderdale, FL
1075,33020,Miami-Fort Lauderdale, FL
1076,33322,Miami-Fort Lauderdale, FL
1077,33125,Miami-Fort Lauderdale, FL
1078,33062,Miami-Fort Lauderdale, FL
1079,33180,Miami-Fort Lauderdale, FL
1080,33130,Miami-Fort Lauderdale, FL
1081,33179,Miami-Fort Lauderdale, FL
1082,33068,Miami-Fort Lauderdale, FL
1083,33126,Miami-Fort Lauderdale, FL
1084,33161,Miami-Fort Lauderdale, FL
1085,33446,Miami-Fort Lauderdale, FL
1086,33175,Miami-Fort Lauderdale, FL
1087,33177,Miami-Fort Lauderdale, FL
1088,33196,Miami-Fort Lauderdale, FL
1089,33461,Miami-Fort Lauderdale, FL
1090,33484,Miami-Fort Lauderdale, FL
1091,33410,Miami-Fort Lauderdale, FL
1092,33445,Miami-Fort Lauderdale, FL
1093,33172,Miami-Fort Lauderdale, FL
1094,33401,Miami-Fort Lauderdale, FL
1095,33428,Miami-Fort Lauderdale, FL
1096,33155,Miami-Fort Lauderdale, FL
1097,33133,Miami-Fort Lauderdale, FL
1098,33193,Miami-Fort Lauderdale, FL
1099,33014,Miami-Fort Lauderdale, FL
1100,33309,Miami-Fort Lauderdale, FL
1101,33060,Miami-Fort Lauderdale, FL
1102,33029,Miami-Fort Lauderdale, FL
1103,33140,Miami-Fort Lauderdale, FL
1104,33404,Miami-Fort Lauderdale, FL
1105,33137,Miami-Fort Lauderdale, FL
1106,33143,Miami-Fort Lauderdale, FL
1107,33162,Miami-Fort Lauderdale, FL
1108,33334,Miami-Fort Lauderdale, FL
1109,33071,Miami-Fort Lauderdale, FL
1110,33432,Miami-Fort Lauderdale, FL
1111,33460,Miami-Fort Lauderdale, FL
1112,33351,Miami-Fort Lauderdale, FL
1113,33156,Miami-Fort Lauderdale, FL
1114,33441,Miami-Fort Lauderdale, FL
1115,33138,Miami-Fort Lauderdale, FL
1116,33407,Miami-Fort Lauderdale, FL
1117,33073,Miami-Fort Lauderdale, FL
1118,33409,Miami-Fort Lauderdale, FL
1119,33173,Miami-Fort Lauderdale, FL
1120,33426,Miami-Fort Lauderdale, FL
1121,33304,Miami-Fort Lauderdale, FL
1122,33019,Miami-Fort Lauderdale, FL
1123,33487,Miami-Fort Lauderdale, FL
1124,33145,Miami-Fort Lauderdale, FL
1125,33496,Miami-Fort Lauderdale, FL
1126,33314,Miami-Fort Lauderdale, FL
1127,33325,Miami-Fort Lauderdale, FL
1128,33301,Miami-Fort Lauderdale, FL
1129,33174,Miami-Fort Lauderdale, FL
1130,33328,Miami-Fort Lauderdale, FL
1131,33444,Miami-Fort Lauderdale, FL
1132,33067,Miami-Fort Lauderdale, FL
1133,33127,Miami-Fort Lauderdale, FL
1134,33154,Miami-Fort Lauderdale, FL
1135,33132,Miami-Fort Lauderdale, FL
1136,33486,Miami-Fort Lauderdale, FL
1137,33028,Miami-Fort Lauderdale, FL
1138,33189,Miami-Fort Lauderdale, FL
1139,33483,Miami-Fort Lauderdale, FL
1140,33181,Miami-Fort Lauderdale, FL
1141,33323,Miami-Fort Lauderdale, FL
1142,33431,Miami-Fort Lauderdale, FL
1143,33129,Miami-Fort Lauderdale, FL
1144,33405,Miami-Fort Lauderdale, FL
1145,33316,Miami-Fort Lauderdale, FL
1146,33149,Miami-Fort Lauderdale, FL
1147,33315,Miami-Fort Lauderdale, FL
1148,33413,Miami-Fort Lauderdale, FL
1149,33035,Miami-Fort Lauderdale, FL
1150,33146,Miami-Fort Lauderdale, FL
1151,33190,Miami-Fort Lauderdale, FL
1152,53212,Milwaukee, WI
1153,55124,Minneapolis-St Paul, MN
1154,55106,Minneapolis-St Paul, MN
1155,55337,Minneapolis-St Paul, MN
1156,55303,Minneapolis-St Paul, MN
1157,55104,Minneapolis-St Paul, MN
1158,55416,Minneapolis-St Paul, MN
1159,55408,Minneapolis-St Paul, MN
1160,55125,Minneapolis-St Paul, MN
1161,55117,Minneapolis-St Paul, MN
1162,55379,Minneapolis-St Paul, MN
1163,55406,Minneapolis-St Paul, MN
1164,55119,Minneapolis-St Paul, MN
1165,55418,Minneapolis-St Paul, MN
1166,55433,Minneapolis-St Paul, MN
1167,55311,Minneapolis-St Paul, MN
1168,54016,Minneapolis-St Paul, MN
1169,55343,Minneapolis-St Paul, MN
1170,55116,Minneapolis-St Paul, MN
1171,55024,Minneapolis-St Paul, MN
1172,55403,Minneapolis-St Paul, MN
1173,55126,Minneapolis-St Paul, MN
1174,55347,Minneapolis-St Paul, MN
1175,55419,Minneapolis-St Paul, MN
1176,55449,Minneapolis-St Paul, MN
1177,55318,Minneapolis-St Paul, MN
1178,55068,Minneapolis-St Paul, MN
1179,55378,Minneapolis-St Paul, MN
1180,55410,Minneapolis-St Paul, MN
1181,55412,Minneapolis-St Paul, MN
1182,37013,Nashville, TN
1183,37211,Nashville, TN
1184,37075,Nashville, TN
1185,37128,Nashville, TN
1186,37130,Nashville, TN
1187,37064,Nashville, TN
1188,37066,Nashville, TN
1189,37122,Nashville, TN
1190,37167,Nashville, TN
1191,37027,Nashville, TN
1192,37221,Nashville, TN
1193,37209,Nashville, TN
1194,37076,Nashville, TN
1195,37214,Nashville, TN
1196,37203,Nashville, TN
1197,37067,Nashville, TN
1198,37086,Nashville, TN
1199,37205,Nashville, TN
1200,37215,Nashville, TN
1201,37138,Nashville, TN
1202,37216,Nashville, TN
1203,37212,Nashville, TN
1204,37204,Nashville, TN
1205,37179,Nashville, TN
1206,6511,New Haven, CT
1207,6492,New Haven, CT
1208,6460,New Haven, CT
1209,6450,New Haven, CT
1210,6704,New Haven, CT
1211,70433,New Orleans, LA
1212,70458,New Orleans, LA
1213,10025,New York, NY
1214,10023,New York, NY
1215,10002,New York, NY
1216,11226,New York, NY
1217,10016,New York, NY
1218,11201,New York, NY
1219,11375,New York, NY
1220,10029,New York, NY
1221,10009,New York, NY
1222,10011,New York, NY
1223,10128,New York, NY
1224,11206,New York, NY
1225,10019,New York, NY
1226,10003,New York, NY
1227,11230,New York, NY
1228,10463,New York, NY
1229,11209,New York, NY
1230,11221,New York, NY
1231,7030,New York, NY
1232,10024,New York, NY
1233,11207,New York, NY
1234,10458,New York, NY
1235,11211,New York, NY
1236,11377,New York, NY
1237,7302,New York, NY
1238,11355,New York, NY
1239,11238,New York, NY
1240,10314,New York, NY
1241,11215,New York, NY
1242,11385,New York, NY
1243,11373,New York, NY
1244,8753,New York, NY
1245,10028,New York, NY
1246,11233,New York, NY
1247,7002,New York, NY
1248,10027,New York, NY
1249,7093,New York, NY
1250,10701,New York, NY
1251,11372,New York, NY
1252,11218,New York, NY
1253,10021,New York, NY
1254,7087,New York, NY
1255,11101,New York, NY
1256,11213,New York, NY
1257,10032,New York, NY
1258,10031,New York, NY
1259,11216,New York, NY
1260,11354,New York, NY
1261,7305,New York, NY
1262,7047,New York, NY
1263,10014,New York, NY
1264,7306,New York, NY
1265,7728,New York, NY
1266,10036,New York, NY
1267,11374,New York, NY
1268,12550,New York, NY
1269,11210,New York, NY
1270,10033,New York, NY
1271,7024,New York, NY
1272,7083,New York, NY
1273,7601,New York, NY
1274,10010,New York, NY
1275,10022,New York, NY
1276,11222,New York, NY
1277,7052,New York, NY
1278,11432,New York, NY
1279,7960,New York, NY
1280,8816,New York, NY
1281,7304,New York, NY
1282,10065,New York, NY
1283,11205,New York, NY
1284,8817,New York, NY
1285,10001,New York, NY
1286,11561,New York, NY
1287,11435,New York, NY
1288,11249,New York, NY
1289,10034,New York, NY
1290,12601,New York, NY
1291,7753,New York, NY
1292,11743,New York, NY
1293,7307,New York, NY
1294,8902,New York, NY
1295,10026,New York, NY
1296,8857,New York, NY
1297,10013,New York, NY
1298,11231,New York, NY
1299,10035,New York, NY
1300,10583,New York, NY
1301,8807,New York, NY
1302,10075,New York, NY
1303,10012,New York, NY
1304,10801,New York, NY
1305,11357,New York, NY
1306,7740,New York, NY
1307,8820,New York, NY
1308,11105,New York, NY
1309,8742,New York, NY
1310,7747,New York, NY
1311,10704,New York, NY
1312,10030,New York, NY
1313,11801,New York, NY
1314,11104,New York, NY
1315,11937,New York, NY
1316,7110,New York, NY
1317,10017,New York, NY
1318,10039,New York, NY
1319,7042,New York, NY
1320,11727,New York, NY
1321,11379,New York, NY
1322,7013,New York, NY
1323,7090,New York, NY
1324,12553,New York, NY
1325,10037,New York, NY
1326,7920,New York, NY
1327,7701,New York, NY
1328,7010,New York, NY
1329,10708,New York, NY
1330,11542,New York, NY
1331,11361,New York, NY
1332,10471,New York, NY
1333,7016,New York, NY
1334,11360,New York, NY
1335,11415,New York, NY
1336,10954,New York, NY
1337,8536,New York, NY
1338,7450,New York, NY
1339,7901,New York, NY
1340,7094,New York, NY
1341,11021,New York, NY
1342,7086,New York, NY
1343,10543,New York, NY
1344,11232,New York, NY
1345,11968,New York, NY
1346,10603,New York, NY
1347,7928,New York, NY
1348,10018,New York, NY
1349,10005,New York, NY
1350,10606,New York, NY
1351,11963,New York, NY
1352,10601,New York, NY
1353,10280,New York, NY
1354,7760,New York, NY
1355,10069,New York, NY
1356,10007,New York, NY
1357,10282,New York, NY
1358,10006,New York, NY
1359,34221,North Port-Sarasota-Bradenton, FL
1360,34203,North Port-Sarasota-Bradenton, FL
1361,34207,North Port-Sarasota-Bradenton, FL
1362,34208,North Port-Sarasota-Bradenton, FL
1363,34243,North Port-Sarasota-Bradenton, FL
1364,34238,North Port-Sarasota-Bradenton, FL
1365,34202,North Port-Sarasota-Bradenton, FL
1366,34210,North Port-Sarasota-Bradenton, FL
1367,34236,North Port-Sarasota-Bradenton, FL
1368,34233,North Port-Sarasota-Bradenton, FL
1369,34239,North Port-Sarasota-Bradenton, FL
1370,34237,North Port-Sarasota-Bradenton, FL
1371,84403,Ogden, UT
1372,73072,Oklahoma City, OK
1373,73071,Oklahoma City, OK
1374,73003,Oklahoma City, OK
1375,68104,Omaha, NE
1376,68123,Omaha, NE
1377,68105,Omaha, NE
1378,68131,Omaha, NE
1379,68132,Omaha, NE
1380,34787,Orlando, FL
1381,34711,Orlando, FL
1382,32822,Orlando, FL
1383,32828,Orlando, FL
1384,32765,Orlando, FL
1385,32792,Orlando, FL
1386,32825,Orlando, FL
1387,32771,Orlando, FL
1388,34748,Orlando, FL
1389,32839,Orlando, FL
1390,34741,Orlando, FL
1391,34744,Orlando, FL
1392,32837,Orlando, FL
1393,32703,Orlando, FL
1394,34746,Orlando, FL
1395,32708,Orlando, FL
1396,32746,Orlando, FL
1397,32835,Orlando, FL
1398,34786,Orlando, FL
1399,32808,Orlando, FL
1400,32824,Orlando, FL
1401,32712,Orlando, FL
1402,34761,Orlando, FL
1403,32714,Orlando, FL
1404,32818,Orlando, FL
1405,32707,Orlando, FL
1406,32811,Orlando, FL
1407,32810,Orlando, FL
1408,34743,Orlando, FL
1409,32773,Orlando, FL
1410,32817,Orlando, FL
1411,32819,Orlando, FL
1412,32789,Orlando, FL
1413,32821,Orlando, FL
1414,32779,Orlando, FL
1415,32832,Orlando, FL
1416,34747,Orlando, FL
1417,32701,Orlando, FL
1418,32803,Orlando, FL
1419,32801,Orlando, FL
1420,32751,Orlando, FL
1421,32836,Orlando, FL
1422,32804,Orlando, FL
1423,32826,Orlando, FL
1424,34714,Orlando, FL
1425,33896,Orlando, FL
1426,32829,Orlando, FL
1427,34715,Orlando, FL
1428,32827,Orlando, FL
1429,32814,Orlando, FL
1430,19143,Philadelphia, PA
1431,19124,Philadelphia, PA
1432,19446,Philadelphia, PA
1433,19720,Philadelphia, PA
1434,19120,Philadelphia, PA
1435,19104,Philadelphia, PA
1436,19134,Philadelphia, PA
1437,19148,Philadelphia, PA
1438,19131,Philadelphia, PA
1439,19711,Philadelphia, PA
1440,19144,Philadelphia, PA
1441,19380,Philadelphia, PA
1442,19382,Philadelphia, PA
1443,19146,Philadelphia, PA
1444,19145,Philadelphia, PA
1445,19140,Philadelphia, PA
1446,19320,Philadelphia, PA
1447,19147,Philadelphia, PA
1448,19464,Philadelphia, PA
1449,19335,Philadelphia, PA
1450,8054,Philadelphia, PA
1451,8053,Philadelphia, PA
1452,19103,Philadelphia, PA
1453,19139,Philadelphia, PA
1454,19403,Philadelphia, PA
1455,19128,Philadelphia, PA
1456,19121,Philadelphia, PA
1457,19701,Philadelphia, PA
1458,19130,Philadelphia, PA
1459,19808,Philadelphia, PA
1460,19805,Philadelphia, PA
1461,19401,Philadelphia, PA
1462,19063,Philadelphia, PA
1463,8012,Philadelphia, PA
1464,19132,Philadelphia, PA
1465,8096,Philadelphia, PA
1466,19426,Philadelphia, PA
1467,19026,Philadelphia, PA
1468,19087,Philadelphia, PA
1469,19125,Philadelphia, PA
1470,18940,Philadelphia, PA
1471,19454,Philadelphia, PA
1472,19107,Philadelphia, PA
1473,19428,Philadelphia, PA
1474,19122,Philadelphia, PA
1475,19438,Philadelphia, PA
1476,19123,Philadelphia, PA
1477,19348,Philadelphia, PA
1478,19106,Philadelphia, PA
1479,19801,Philadelphia, PA
1480,19096,Philadelphia, PA
1481,19102,Philadelphia, PA
1482,19127,Philadelphia, PA
1483,85032,Phoenix, AZ
1484,85281,Phoenix, AZ
1485,85225,Phoenix, AZ
1486,85308,Phoenix, AZ
1487,85142,Phoenix, AZ
1488,85251,Phoenix, AZ
1489,85282,Phoenix, AZ
1490,85383,Phoenix, AZ
1491,85204,Phoenix, AZ
1492,85345,Phoenix, AZ
1493,85301,Phoenix, AZ
1494,85008,Phoenix, AZ
1495,85255,Phoenix, AZ
1496,85201,Phoenix, AZ
1497,85326,Phoenix, AZ
1498,85351,Phoenix, AZ
1499,85338,Phoenix, AZ
1500,85205,Phoenix, AZ
1501,85374,Phoenix, AZ
1502,85254,Phoenix, AZ
1503,85248,Phoenix, AZ
1504,85207,Phoenix, AZ
1505,85122,Phoenix, AZ
1506,85016,Phoenix, AZ
1507,85224,Phoenix, AZ
1508,85375,Phoenix, AZ
1509,85283,Phoenix, AZ
1510,85209,Phoenix, AZ
1511,85018,Phoenix, AZ
1512,85382,Phoenix, AZ
1513,85260,Phoenix, AZ
1514,85044,Phoenix, AZ
1515,85029,Phoenix, AZ
1516,85041,Phoenix, AZ
1517,85206,Phoenix, AZ
1518,85234,Phoenix, AZ
1519,85020,Phoenix, AZ
1520,85295,Phoenix, AZ
1521,85208,Phoenix, AZ
1522,85021,Phoenix, AZ
1523,85202,Phoenix, AZ
1524,85296,Phoenix, AZ
1525,85249,Phoenix, AZ
1526,85286,Phoenix, AZ
1527,85027,Phoenix, AZ
1528,85226,Phoenix, AZ
1529,85015,Phoenix, AZ
1530,85051,Phoenix, AZ
1531,85086,Phoenix, AZ
1532,85033,Phoenix, AZ
1533,85302,Phoenix, AZ
1534,85138,Phoenix, AZ
1535,85035,Phoenix, AZ
1536,85379,Phoenix, AZ
1537,85042,Phoenix, AZ
1538,85233,Phoenix, AZ
1539,85213,Phoenix, AZ
1540,85037,Phoenix, AZ
1541,85257,Phoenix, AZ
1542,85023,Phoenix, AZ
1543,85212,Phoenix, AZ
1544,85258,Phoenix, AZ
1545,85143,Phoenix, AZ
1546,85140,Phoenix, AZ
1547,85048,Phoenix, AZ
1548,85014,Phoenix, AZ
1549,85323,Phoenix, AZ
1550,85395,Phoenix, AZ
1551,85298,Phoenix, AZ
1552,85392,Phoenix, AZ
1553,85268,Phoenix, AZ
1554,85203,Phoenix, AZ
1555,85050,Phoenix, AZ
1556,85009,Phoenix, AZ
1557,85331,Phoenix, AZ
1558,85053,Phoenix, AZ
1559,85340,Phoenix, AZ
1560,85353,Phoenix, AZ
1561,85396,Phoenix, AZ
1562,85119,Phoenix, AZ
1563,85024,Phoenix, AZ
1564,85335,Phoenix, AZ
1565,85013,Phoenix, AZ
1566,85297,Phoenix, AZ
1567,85085,Phoenix, AZ
1568,85040,Phoenix, AZ
1569,85259,Phoenix, AZ
1570,85381,Phoenix, AZ
1571,85304,Phoenix, AZ
1572,85303,Phoenix, AZ
1573,85388,Phoenix, AZ
1574,85306,Phoenix, AZ
1575,85006,Phoenix, AZ
1576,85250,Phoenix, AZ
1577,85043,Phoenix, AZ
1578,85031,Phoenix, AZ
1579,85253,Phoenix, AZ
1580,85139,Phoenix, AZ
1581,85083,Phoenix, AZ
1582,85128,Phoenix, AZ
1583,85305,Phoenix, AZ
1584,85054,Phoenix, AZ
1585,85012,Phoenix, AZ
1586,85378,Phoenix, AZ
1587,85307,Phoenix, AZ
1588,15212,Pittsburgh, PA
1589,15217,Pittsburgh, PA
1590,15203,Pittsburgh, PA
1591,15211,Pittsburgh, PA
1592,34997,Port St. Lucie, FL
1593,34952,Port St. Lucie, FL
1594,34957,Port St. Lucie, FL
1595,97229,Portland, OR
1596,97124,Portland, OR
1597,97206,Portland, OR
1598,97223,Portland, OR
1599,98661,Portland, OR
1600,97006,Portland, OR
1601,97007,Portland, OR
1602,97123,Portland, OR
1603,97030,Portland, OR
1604,97219,Portland, OR
1605,97217,Portland, OR
1606,97224,Portland, OR
1607,97230,Portland, OR
1608,97209,Portland, OR
1609,97214,Portland, OR
1610,97233,Portland, OR
1611,98683,Portland, OR
1612,97213,Portland, OR
1613,97211,Portland, OR
1614,97236,Portland, OR
1615,97203,Portland, OR
1616,97266,Portland, OR
1617,97035,Portland, OR
1618,97212,Portland, OR
1619,97201,Portland, OR
1620,97239,Portland, OR
1621,97232,Portland, OR
1622,97210,Portland, OR
1623,97216,Portland, OR
1624,2895,Providence, RI
1625,2840,Providence, RI
1626,2906,Providence, RI
1627,2809,Providence, RI
1628,2871,Providence, RI
1629,2903,Providence, RI
1630,27587,Raleigh, NC
1631,27610,Raleigh, NC
1632,27519,Raleigh, NC
1633,27603,Raleigh, NC
1634,27529,Raleigh, NC
1635,27526,Raleigh, NC
1636,27606,Raleigh, NC
1637,27616,Raleigh, NC
1638,27613,Raleigh, NC
1639,27513,Raleigh, NC
1640,27615,Raleigh, NC
1641,27612,Raleigh, NC
1642,27604,Raleigh, NC
1643,27609,Raleigh, NC
1644,27520,Raleigh, NC
1645,27560,Raleigh, NC
1646,27502,Raleigh, NC
1647,27540,Raleigh, NC
1648,27511,Raleigh, NC
1649,27614,Raleigh, NC
1650,27545,Raleigh, NC
1651,27527,Raleigh, NC
1652,27617,Raleigh, NC
1653,27607,Raleigh, NC
1654,27518,Raleigh, NC
1655,27601,Raleigh, NC
1656,23223,Richmond, VA
1657,23112,Richmond, VA
1658,23225,Richmond, VA
1659,23803,Richmond, VA
1660,23220,Richmond, VA
1661,23234,Richmond, VA
1662,23224,Richmond, VA
1663,23228,Richmond, VA
1664,23831,Richmond, VA
1665,23060,Richmond, VA
1666,23059,Richmond, VA
1667,23227,Richmond, VA
1668,23222,Richmond, VA
1669,23221,Richmond, VA
1670,23226,Richmond, VA
1671,23219,Richmond, VA
1672,91709,Riverside, CA
1673,92592,Riverside, CA
1674,91730,Riverside, CA
1675,91710,Riverside, CA
1676,92563,Riverside, CA
1677,92562,Riverside, CA
1678,92399,Riverside, CA
1679,92880,Riverside, CA
1680,91786,Riverside, CA
1681,92507,Riverside, CA
1682,92346,Riverside, CA
1683,92260,Riverside, CA
1684,92407,Riverside, CA
1685,91762,Riverside, CA
1686,91761,Riverside, CA
1687,92211,Riverside, CA
1688,92530,Riverside, CA
1689,91764,Riverside, CA
1690,92584,Riverside, CA
1691,92307,Riverside, CA
1692,92262,Riverside, CA
1693,92373,Riverside, CA
1694,92591,Riverside, CA
1695,92374,Riverside, CA
1696,92879,Riverside, CA
1697,91701,Riverside, CA
1698,92270,Riverside, CA
1699,91739,Riverside, CA
1700,92586,Riverside, CA
1701,92595,Riverside, CA
1702,92555,Riverside, CA
1703,92284,Riverside, CA
1704,92508,Riverside, CA
1705,92881,Riverside, CA
1706,92551,Riverside, CA
1707,91737,Riverside, CA
1708,92532,Riverside, CA
1709,91708,Riverside, CA
1710,14607,Rochester, NY
1711,95630,Sacramento, CA
1712,95608,Sacramento, CA
1713,95823,Sacramento, CA
1714,95747,Sacramento, CA
1715,95758,Sacramento, CA
1716,95648,Sacramento, CA
1717,95624,Sacramento, CA
1718,95828,Sacramento, CA
1719,95628,Sacramento, CA
1720,95610,Sacramento, CA
1721,95678,Sacramento, CA
1722,95826,Sacramento, CA
1723,95821,Sacramento, CA
1724,95691,Sacramento, CA
1725,95843,Sacramento, CA
1726,95833,Sacramento, CA
1727,95835,Sacramento, CA
1728,95765,Sacramento, CA
1729,95661,Sacramento, CA
1730,95820,Sacramento, CA
1731,95834,Sacramento, CA
1732,95816,Sacramento, CA
1733,95819,Sacramento, CA
1734,95817,Sacramento, CA
1735,95605,Sacramento, CA
1736,78130,San Antonio, TX
1737,78245,San Antonio, TX
1738,78240,San Antonio, TX
1739,78249,San Antonio, TX
1740,78254,San Antonio, TX
1741,78253,San Antonio, TX
1742,78209,San Antonio, TX
1743,78228,San Antonio, TX
1744,78230,San Antonio, TX
1745,78258,San Antonio, TX
1746,78250,San Antonio, TX
1747,78216,San Antonio, TX
1748,78247,San Antonio, TX
1749,78109,San Antonio, TX
1750,78213,San Antonio, TX
1751,78229,San Antonio, TX
1752,78227,San Antonio, TX
1753,78232,San Antonio, TX
1754,78154,San Antonio, TX
1755,78210,San Antonio, TX
1756,78212,San Antonio, TX
1757,78260,San Antonio, TX
1758,78259,San Antonio, TX
1759,78239,San Antonio, TX
1760,78244,San Antonio, TX
1761,78023,San Antonio, TX
1762,78238,San Antonio, TX
1763,78148,San Antonio, TX
1764,78261,San Antonio, TX
1765,78255,San Antonio, TX
1766,78252,San Antonio, TX
1767,91910,San Diego, CA
1768,92126,San Diego, CA
1769,92101,San Diego, CA
1770,92109,San Diego, CA
1771,92021,San Diego, CA
1772,92104,San Diego, CA
1773,92154,San Diego, CA
1774,92115,San Diego, CA
1775,92130,San Diego, CA
1776,92122,San Diego, CA
1777,92117,San Diego, CA
1778,92128,San Diego, CA
1779,92020,San Diego, CA
1780,92056,San Diego, CA
1781,92071,San Diego, CA
1782,92024,San Diego, CA
1783,92057,San Diego, CA
1784,92103,San Diego, CA
1785,91977,San Diego, CA
1786,92037,San Diego, CA
1787,92078,San Diego, CA
1788,92026,San Diego, CA
1789,92114,San Diego, CA
1790,91942,San Diego, CA
1791,92028,San Diego, CA
1792,92129,San Diego, CA
1793,92111,San Diego, CA
1794,92027,San Diego, CA
1795,92116,San Diego, CA
1796,92009,San Diego, CA
1797,92054,San Diego, CA
1798,92064,San Diego, CA
1799,92127,San Diego, CA
1800,91913,San Diego, CA
1801,92025,San Diego, CA
1802,92069,San Diego, CA
1803,92084,San Diego, CA
1804,92019,San Diego, CA
1805,92058,San Diego, CA
1806,92102,San Diego, CA
1807,92107,San Diego, CA
1808,92108,San Diego, CA
1809,91941,San Diego, CA
1810,92123,San Diego, CA
1811,92120,San Diego, CA
1812,92008,San Diego, CA
1813,92081,San Diego, CA
1814,91932,San Diego, CA
1815,92011,San Diego, CA
1816,91915,San Diego, CA
1817,92118,San Diego, CA
1818,91945,San Diego, CA
1819,92106,San Diego, CA
1820,92029,San Diego, CA
1821,92014,San Diego, CA
1822,92010,San Diego, CA
1823,92075,San Diego, CA
1824,94109,San Francisco, CA
1825,94565,San Francisco, CA
1826,94501,San Francisco, CA
1827,94110,San Francisco, CA
1828,94536,San Francisco, CA
1829,94568,San Francisco, CA
1830,94509,San Francisco, CA
1831,94122,San Francisco, CA
1832,94541,San Francisco, CA
1833,94538,San Francisco, CA
1834,94513,San Francisco, CA
1835,94587,San Francisco, CA
1836,94553,San Francisco, CA
1837,94115,San Francisco, CA
1838,94117,San Francisco, CA
1839,94121,San Francisco, CA
1840,94611,San Francisco, CA
1841,94550,San Francisco, CA
1842,94118,San Francisco, CA
1843,94403,San Francisco, CA
1844,94103,San Francisco, CA
1845,94114,San Francisco, CA
1846,94107,San Francisco, CA
1847,94605,San Francisco, CA
1848,94610,San Francisco, CA
1849,94025,San Francisco, CA
1850,94521,San Francisco, CA
1851,94901,San Francisco, CA
1852,94608,San Francisco, CA
1853,94551,San Francisco, CA
1854,94582,San Francisco, CA
1855,94123,San Francisco, CA
1856,94523,San Francisco, CA
1857,94061,San Francisco, CA
1858,94131,San Francisco, CA
1859,94941,San Francisco, CA
1860,94602,San Francisco, CA
1861,94596,San Francisco, CA
1862,94597,San Francisco, CA
1863,94506,San Francisco, CA
1864,94105,San Francisco, CA
1865,94920,San Francisco, CA
1866,94965,San Francisco, CA
1867,94507,San Francisco, CA
1868,95123,San Jose, CA
1869,95051,San Jose, CA
1870,95014,San Jose, CA
1871,95125,San Jose, CA
1872,94086,San Jose, CA
1873,95020,San Jose, CA
1874,95037,San Jose, CA
1875,94040,San Jose, CA
1876,95050,San Jose, CA
1877,95134,San Jose, CA
1878,94043,San Jose, CA
1879,95117,San Jose, CA
1880,95054,San Jose, CA
1881,94301,San Jose, CA
1882,98052,Seattle, WA
1883,98012,Seattle, WA
1884,98103,Seattle, WA
1885,98115,Seattle, WA
1886,98122,Seattle, WA
1887,98133,Seattle, WA
1888,98208,Seattle, WA
1889,98109,Seattle, WA
1890,98034,Seattle, WA
1891,98125,Seattle, WA
1892,98391,Seattle, WA
1893,98105,Seattle, WA
1894,98270,Seattle, WA
1895,98004,Seattle, WA
1896,98118,Seattle, WA
1897,98258,Seattle, WA
1898,98023,Seattle, WA
1899,98033,Seattle, WA
1900,98042,Seattle, WA
1901,98102,Seattle, WA
1902,98058,Seattle, WA
1903,98223,Seattle, WA
1904,98374,Seattle, WA
1905,98087,Seattle, WA
1906,98107,Seattle, WA
1907,98056,Seattle, WA
1908,98121,Seattle, WA
1909,98198,Seattle, WA
1910,98155,Seattle, WA
1911,98006,Seattle, WA
1912,98002,Seattle, WA
1913,98031,Seattle, WA
1914,98116,Seattle, WA
1915,98144,Seattle, WA
1916,98201,Seattle, WA
1917,98030,Seattle, WA
1918,98119,Seattle, WA
1919,98466,Seattle, WA
1920,98029,Seattle, WA
1921,98498,Seattle, WA
1922,98007,Seattle, WA
1923,98404,Seattle, WA
1924,98011,Seattle, WA
1925,98271,Seattle, WA
1926,98373,Seattle, WA
1927,98146,Seattle, WA
1928,98112,Seattle, WA
1929,98405,Seattle, WA
1930,98106,Seattle, WA
1931,98375,Seattle, WA
1932,98272,Seattle, WA
1933,98008,Seattle, WA
1934,98406,Seattle, WA
1935,98199,Seattle, WA
1936,98407,Seattle, WA
1937,98005,Seattle, WA
1938,98108,Seattle, WA
1939,98075,Seattle, WA
1940,98422,Seattle, WA
1941,98403,Seattle, WA
1942,98402,Seattle, WA
1943,98327,Seattle, WA
1944,99206,Spokane, WA
1945,99207,Spokane, WA
1946,63376,St. Louis, MO
1947,63301,St. Louis, MO
1948,63116,St. Louis, MO
1949,63031,St. Louis, MO
1950,63136,St. Louis, MO
1951,63033,St. Louis, MO
1952,63122,St. Louis, MO
1953,63368,St. Louis, MO
1954,63119,St. Louis, MO
1955,63109,St. Louis, MO
1956,63130,St. Louis, MO
1957,63108,St. Louis, MO
1958,63118,St. Louis, MO
1959,63112,St. Louis, MO
1960,63104,St. Louis, MO
1961,63111,St. Louis, MO
1962,63135,St. Louis, MO
1963,63105,St. Louis, MO
1964,63117,St. Louis, MO
1965,6902,Stamford, CT
1966,6810,Stamford, CT
1967,6484,Stamford, CT
1968,6824,Stamford, CT
1969,6811,Stamford, CT
1970,6604,Stamford, CT
1971,6851,Stamford, CT
1972,6854,Stamford, CT
1973,6830,Stamford, CT
1974,6605,Stamford, CT
1975,6905,Stamford, CT
1976,6820,Stamford, CT
1977,6901,Stamford, CT
1978,6807,Stamford, CT
1979,95207,Stockton, CA
1980,95376,Stockton, CA
1981,95337,Stockton, CA
1982,95219,Stockton, CA
1983,95391,Stockton, CA
1984,33647,Tampa, FL
1985,33511,Tampa, FL
1986,33578,Tampa, FL
1987,34668,Tampa, FL
1988,34698,Tampa, FL
1989,33614,Tampa, FL
1990,33615,Tampa, FL
1991,33612,Tampa, FL
1992,34667,Tampa, FL
1993,34609,Tampa, FL
1994,33610,Tampa, FL
1995,33624,Tampa, FL
1996,33573,Tampa, FL
1997,33611,Tampa, FL
1998,33702,Tampa, FL
1999,33604,Tampa, FL
2000,33613,Tampa, FL
2001,33707,Tampa, FL
2002,33756,Tampa, FL
2003,34683,Tampa, FL
2004,33713,Tampa, FL
2005,34684,Tampa, FL
2006,33705,Tampa, FL
2007,34608,Tampa, FL
2008,34652,Tampa, FL
2009,33770,Tampa, FL
2010,34689,Tampa, FL
2011,34606,Tampa, FL
2012,33579,Tampa, FL
2013,33626,Tampa, FL
2014,33543,Tampa, FL
2015,33772,Tampa, FL
2016,33701,Tampa, FL
2017,33607,Tampa, FL
2018,33712,Tampa, FL
2019,33755,Tampa, FL
2020,34691,Tampa, FL
2021,33625,Tampa, FL
2022,33629,Tampa, FL
2023,34639,Tampa, FL
2024,33556,Tampa, FL
2025,33563,Tampa, FL
2026,33706,Tampa, FL
2027,33763,Tampa, FL
2028,33596,Tampa, FL
2029,33716,Tampa, FL
2030,33584,Tampa, FL
2031,33547,Tampa, FL
2032,33782,Tampa, FL
2033,33602,Tampa, FL
2034,33569,Tampa, FL
2035,33606,Tampa, FL
2036,33572,Tampa, FL
2037,33774,Tampa, FL
2038,33759,Tampa, FL
2039,33609,Tampa, FL
2040,33711,Tampa, FL
2041,33704,Tampa, FL
2042,33635,Tampa, FL
2043,33637,Tampa, FL
2044,33605,Tampa, FL
2045,33616,Tampa, FL
2046,33559,Tampa, FL
2047,85710,Tucson, AZ
2048,85705,Tucson, AZ
2049,85711,Tucson, AZ
2050,85719,Tucson, AZ
2051,85706,Tucson, AZ
2052,85712,Tucson, AZ
2053,85716,Tucson, AZ
2054,85704,Tucson, AZ
2055,85745,Tucson, AZ
2056,85730,Tucson, AZ
2057,85718,Tucson, AZ
2058,85746,Tucson, AZ
2059,85750,Tucson, AZ
2060,85743,Tucson, AZ
2061,85737,Tucson, AZ
2062,85629,Tucson, AZ
2063,85756,Tucson, AZ
2064,85715,Tucson, AZ
2065,74012,Tulsa, OK
2066,74014,Tulsa, OK
2067,74037,Tulsa, OK
2068,96706,Urban Honolulu, HI
2069,96815,Urban Honolulu, HI
2070,96817,Urban Honolulu, HI
2071,96789,Urban Honolulu, HI
2072,96744,Urban Honolulu, HI
2073,96822,Urban Honolulu, HI
2074,96816,Urban Honolulu, HI
2075,96818,Urban Honolulu, HI
2076,96734,Urban Honolulu, HI
2077,96826,Urban Honolulu, HI
2078,96707,Urban Honolulu, HI
2079,96792,Urban Honolulu, HI
2080,96814,Urban Honolulu, HI
2081,96813,Urban Honolulu, HI
2082,93003,Ventura, CA
2083,93063,Ventura, CA
2084,93010,Ventura, CA
2085,91320,Ventura, CA
2086,91360,Ventura, CA
2087,93012,Ventura, CA
2088,91362,Ventura, CA
2089,93001,Ventura, CA
2090,93021,Ventura, CA
2091,93035,Ventura, CA
2092,91361,Ventura, CA
2093,91377,Ventura, CA
2094,23464,Virginia Beach, VA
2095,23462,Virginia Beach, VA
2096,23320,Virginia Beach, VA
2097,23454,Virginia Beach, VA
2098,23666,Virginia Beach, VA
2099,23452,Virginia Beach, VA
2100,23451,Virginia Beach, VA
2101,23322,Virginia Beach, VA
2102,23455,Virginia Beach, VA
2103,23185,Virginia Beach, VA
2104,23188,Virginia Beach, VA
2105,23608,Virginia Beach, VA
2106,23602,Virginia Beach, VA
2107,23323,Virginia Beach, VA
2108,23503,Virginia Beach, VA
2109,23606,Virginia Beach, VA
2110,23518,Virginia Beach, VA
2111,23505,Virginia Beach, VA
2112,23453,Virginia Beach, VA
2113,23435,Virginia Beach, VA
2114,23607,Virginia Beach, VA
2115,23693,Virginia Beach, VA
2116,23704,Virginia Beach, VA
2117,23504,Virginia Beach, VA
2118,23508,Virginia Beach, VA
2119,23507,Virginia Beach, VA
2120,20002,Washington, DC
2121,20009,Washington, DC
2122,20906,Washington, DC
2123,20011,Washington, DC
2124,22191,Washington, DC
2125,20001,Washington, DC
2126,22193,Washington, DC
2127,20147,Washington, DC
2128,20878,Washington, DC
2129,20019,Washington, DC
2130,22204,Washington, DC
2131,20874,Washington, DC
2132,20852,Washington, DC
2133,20020,Washington, DC
2134,20910,Washington, DC
2135,22407,Washington, DC
2136,22192,Washington, DC
2137,22201,Washington, DC
2138,22030,Washington, DC
2139,20850,Washington, DC
2140,22003,Washington, DC
2141,22554,Washington, DC
2142,20774,Washington, DC
2143,20744,Washington, DC
2144,20171,Washington, DC
2145,20148,Washington, DC
2146,20772,Washington, DC
2147,20902,Washington, DC
2148,20003,Washington, DC
2149,20008,Washington, DC
2150,20176,Washington, DC
2151,20854,Washington, DC
2152,22202,Washington, DC
2153,21702,Washington, DC
2154,21701,Washington, DC
2155,20747,Washington, DC
2156,22033,Washington, DC
2157,20707,Washington, DC
2158,20814,Washington, DC
2159,20016,Washington, DC
2160,22015,Washington, DC
2161,22031,Washington, DC
2162,20109,Washington, DC
2163,20120,Washington, DC
2164,20815,Washington, DC
2165,20817,Washington, DC
2166,20010,Washington, DC
2167,20170,Washington, DC
2168,22203,Washington, DC
2169,20877,Washington, DC
2170,20007,Washington, DC
2171,22102,Washington, DC
2172,20901,Washington, DC
2173,20886,Washington, DC
2174,22042,Washington, DC
2175,22306,Washington, DC
2176,20745,Washington, DC
2177,20164,Washington, DC
2178,20155,Washington, DC
2179,22207,Washington, DC
2180,20165,Washington, DC
2181,20111,Washington, DC
2182,20191,Washington, DC
2183,20723,Washington, DC
2184,22309,Washington, DC
2185,20770,Washington, DC
2186,22101,Washington, DC
2187,22315,Washington, DC
2188,22405,Washington, DC
2189,20175,Washington, DC
2190,22401,Washington, DC
2191,22310,Washington, DC
2192,20603,Washington, DC
2193,22206,Washington, DC
2194,22041,Washington, DC
2195,22408,Washington, DC
2196,20152,Washington, DC
2197,22153,Washington, DC
2198,20740,Washington, DC
2199,20190,Washington, DC
2200,22152,Washington, DC
2201,20121,Washington, DC
2202,22180,Washington, DC
2203,20601,Washington, DC
2204,20105,Washington, DC
2205,22182,Washington, DC
2206,22043,Washington, DC
2207,20715,Washington, DC
2208,20716,Washington, DC
2209,22209,Washington, DC
2210,20879,Washington, DC
2211,20005,Washington, DC
2212,20871,Washington, DC
2213,20037,Washington, DC
2214,22303,Washington, DC
2215,20015,Washington, DC
2216,22124,Washington, DC
2217,20724,Washington, DC
2218,22026,Washington, DC
2219,22025,Washington, DC
2220,20186,Washington, DC
2221,21704,Washington, DC
2222,20194,Washington, DC
2223,22044,Washington, DC
2224,22181,Washington, DC
2225,20166,Washington, DC
2226,20036,Washington, DC
2227,67203,Wichita, KS
2228,27103,Winston-Salem, NC
2229,27104,Winston-Salem, NC
2230,27012,Winston-Salem, NC
2231,27101,Winston-Salem, NC
2232,1604,Worcester, MA
